[{"OBJECT_NAME":"JB-3 3 (ZY 2C)","OBJECT_ID":"2004-044A","EPOCH":"2026-03-09T22:02:57.764832","MEAN_MOTION":15.18506021,"ECCENTRICITY":0.00333938,"INCLINATION":97.2622,"RA_OF_ASC_NODE":226.2642,"ARG_OF_PERICENTER":206.2478,"MEAN_ANOMALY":153.7066,"EPHEMERIS_TYPE":0,"CLASSIFICATION_TYPE":"U","NORAD_CAT_ID":28470,"ELEMENT_SET_NO":999,"REV_AT_EPOCH":17271,"BSTAR":0.00032413866,"MEAN_MOTION_DOT":6.719e-5,"MEAN_MOTION_DDOT":0},{"OBJECT_NAME":"STARLINK-5828","OBJECT_ID":"2023-088Y","EPOCH":"2026-03-09T22:00:01.999584","MEAN_MOTION":15.10626541,"ECCENTRICITY":0.0001023,"INCLINATION":43.0004,"RA_OF_ASC_NODE":93.547,"ARG_OF_PERICENTER":271.3416,"MEAN_ANOMALY":325.7149,"EPHEMERIS_TYPE":0,"CLASSIFICATION_TYPE":"U","NORAD_CAT_ID":57070,"ELEMENT_SET_NO":999,"REV_AT_EPOCH":572,"BSTAR":0.0030332651,"MEAN_MOTION_DOT":0.00051164,"MEAN_MOTION_DDOT":0}]
